NORAD_CAT_ID,OBJECT_NAME,OBJECT_TYPE,EPOCH,MEAN_MOTION,ECCENTRICITY,INCLINATION,RA_OF_ASC_NODE,ARG_OF_PERICENTER,MEAN_ANOMALY,BSTAR,MEAN_MOTION_DOT,MEAN_MOTION_DDOT,TLE_LINE0,TLE_LINE1,TLE_LINE2,SEMIMAJOR_AXIS,PERIOD,APOGEE,PERIGEE,DECAYED
53254.0,STARLINK-4134,PAYLOAD,2023-10-14 02:12:45,15.08870676,0.0001492,53.2166,173.8171,109.254,250.8614,0.0010588,0.00016617,0.0,0 STARLINK-4134,1 53254U 22086N   23287.09219173  .00016617  00000-0  10588-2 0  9996,2 53254  53.2166 173.8171 0001492 109.2540 250.8614 15.08870676 68399,6917.787,95.436,540.684,538.619,0.0
53254.0,STARLINK-4134,PAYLOAD,2023-10-14 10:09:41,15.08845732,0.0002,53.2165,172.3321,85.3312,274.7909,0.00032629,4.909e-05,0.0,0 STARLINK-4134,1 53254U 22086N   23287.42339904  .00004909  00000-0  32629-3 0  9990,2 53254  53.2165 172.3321 0002000  85.3312 274.7909 15.08845732 68449,6917.863,95.437,541.111,538.344,0.0
53254.0,STARLINK-4134,PAYLOAD,2023-10-14 21:17:23,15.08837377,0.000176,53.2169,170.2476,107.2799,252.8386,0.00055374,8.535e-05,0.0,0 STARLINK-4134,1 53254U 22086N   23287.88707914  .00008535  00000-0  55374-3 0  9991,2 53254  53.2169 170.2476 0001760 107.2799 252.8386 15.08837377 68718,6917.888,95.438,540.971,538.536,0.0
53254.0,STARLINK-4134,PAYLOAD,2023-10-15 02:03:33,15.08835168,0.0001667,53.2176,169.3566,104.3568,255.7609,0.00048755,7.479e-05,0.0,0 STARLINK-4134,1 53254U 22086N   23288.08580094  .00007479  00000-0  48755-3 0  9993,2 53254  53.2176 169.3566 0001667 104.3568 255.7609 15.08835168 68540,6917.895,95.438,540.913,538.607,0.0
53254.0,STARLINK-4134,PAYLOAD,2023-10-15 21:08:11,15.08839804,0.0001686,53.2171,165.788,108.422,251.6955,0.00033021,4.971e-05,0.0,0 STARLINK-4134,1 53254U 22086N   23288.88068303  .00004971  00000-0  33021-3 0  9999,2 53254  53.2171 165.7880 0001686 108.4220 251.6955 15.08839804 68860,6917.881,95.438,540.912,538.58,0.0
53254.0,STARLINK-4134,PAYLOAD,2023-10-15 22:43:34,15.08845151,0.000152,53.2166,165.4921,92.6016,267.515,0.00031783,4.775e-05,0.0,0 STARLINK-4134,1 53254U 22086N   23288.94692196  .00004775  00000-0  31783-3 0  9994,2 53254  53.2166 165.4921 0001520  92.6016 267.5150 15.08845151 68675,6917.865,95.437,540.781,538.678,0.0
53254.0,STARLINK-4134,PAYLOAD,2023-10-16 16:12:48,15.08840792,0.0001398,53.2159,162.22,87.6818,272.4334,0.00018417,2.644e-05,0.0,0 STARLINK-4134,1 53254U 22086N   23289.67556428  .00002644  00000-0  18417-3 0  9994,2 53254  53.2159 162.2200 0001398  87.6818 272.4334 15.08840792 68786,6917.878,95.438,540.71,538.776,0.0
53254.0,STARLINK-4134,PAYLOAD,2023-10-17 08:06:39,15.08844727,0.0001384,53.216,159.2478,86.0147,274.1003,0.00018737,2.696e-05,0.0,0 STARLINK-4134,1 53254U 22086N   23290.33796247  .00002696  00000-0  18737-3 0  9996,2 53254  53.2160 159.2478 0001384  86.0147 274.1003 15.08844727 69082,6917.866,95.437,540.688,538.774,0.0
53254.0,STARLINK-4134,PAYLOAD,2023-10-18 00:00:31,15.08848861,0.0001297,53.2158,156.274,87.8906,272.2235,0.00022838,3.349e-05,0.0,0 STARLINK-4134,1 53254U 22086N   23291.00035999  .00003349  00000-0  22838-3 0  9994,2 53254  53.2158 156.2740 0001297  87.8906 272.2235 15.08848861 69183,6917.853,95.437,540.616,538.821,0.0
53254.0,STARLINK-4134,PAYLOAD,2023-10-18 07:57:26,15.08844918,0.0001403,53.2163,154.7872,81.1083,279.0068,0.00011195,1.494e-05,0.0,0 STARLINK-4134,1 53254U 22086N   23291.33156125  .00001494  00000-0  11195-3 0  9998,2 53254  53.2163 154.7872 0001403  81.1083 279.0068 15.08844918 69032,6917.865,95.437,540.701,538.76,0.0
53254.0,STARLINK-4134,PAYLOAD,2023-10-20 14:00:33,15.0884203,0.0001358,53.2154,144.6757,76.4688,283.6456,0.00011805,1.591e-05,0.0,0 STARLINK-4134,1 53254U 22086N   23293.58372198  .00001591  00000-0  11805-3 0  9993,2 53254  53.2154 144.6757 0001358  76.4688 283.6456 15.08842030 69573,6917.874,95.437,540.679,538.8,0.0
53254.0,STARLINK-4134,PAYLOAD,2023-10-20 20:22:06,15.08837232,0.0001762,53.2161,143.4864,75.9265,284.1923,2.2164e-05,6.5e-07,0.0,0 STARLINK-4134,1 53254U 22086N   23293.84868608  .00000065  00000-0  22164-4 0  9994,2 53254  53.2161 143.4864 0001762  75.9265 284.1923 15.08837232 69417,6917.889,95.438,540.973,538.535,0.0
53254.0,STARLINK-4134,PAYLOAD,2023-10-21 13:51:20,15.08838562,0.0001547,53.2155,140.2167,83.7451,276.3718,0.00031815,4.779e-05,0.0,0 STARLINK-4134,1 53254U 22086N   23294.57732366  .00004779  00000-0  31815-3 0  9994,2 53254  53.2155 140.2167 0001547  83.7451 276.3718 15.08838562 69722,6917.885,95.438,540.82,538.68,0.0
53254.0,STARLINK-4134,PAYLOAD,2023-10-21 21:48:16,15.08851991,0.0001533,53.2155,138.7298,84.7324,275.3843,0.00064841,0.0001005,0.0,0 STARLINK-4134,1 53254U 22086N   23294.90852148  .00010050  00000-0  64841-3 0  9996,2 53254  53.2155 138.7298 0001533  84.7324 275.3843 15.08851991 69778,6917.844,95.437,540.769,538.648,0.0
53254.0,STARLINK-4134,PAYLOAD,2023-10-21 23:23:39,15.0885516,0.0001541,53.2154,138.4324,84.4823,275.6345,0.00073225,0.0001139,0.0,0 STARLINK-4134,1 53254U 22086N   23294.97476107  .00011390  00000-0  73225-3 0  9994,2 53254  53.2154 138.4324 0001541  84.4823 275.6345 15.08855160 69585,6917.834,95.437,540.765,538.633,0.0
53254.0,STARLINK-4134,PAYLOAD,2023-10-22 10:31:21,15.08836234,0.0001477,53.2158,136.3505,102.9028,257.2129,-0.00019095,-3.325e-05,0.0,0 STARLINK-4134,1 53254U 22086N   23295.43844357 -.00003325  00000-0 -19095-3 0  9998,2 53254  53.2158 136.3505 0001477 102.9028 257.2129 15.08836234 69653,6917.892,95.438,540.779,538.735,0.0
53254.0,STARLINK-4134,PAYLOAD,2023-10-22 13:42:08,15.08834293,0.0001518,53.2156,135.7563,97.5467,262.5698,-7.7509e-05,-1.521e-05,0.0,0 STARLINK-4134,1 53254U 22086N   23295.57092616 -.00001521  00000-0 -77509-4 0  9997,2 53254  53.2156 135.7563 0001518  97.5467 262.5698 15.08834293 69877,6917.898,95.438,540.813,538.713,0.0
53254.0,STARLINK-4134,PAYLOAD,2023-10-22 21:39:03,15.08836146,0.0001529,53.2158,134.2697,92.2594,267.8573,9.5976e-05,1.24e-05,0.0,0 STARLINK-4134,1 53254U 22086N   23295.90212931  .00001240  00000-0  95976-4 0  9992,2 53254  53.2158 134.2697 0001529  92.2594 267.8573 15.08836146 69921,6917.892,95.438,540.815,538.699,0.0
53254.0,STARLINK-4134,PAYLOAD,2023-10-23 11:57:32,15.08838474,0.0001525,53.216,131.5936,93.8872,266.2295,0.00015944,2.25e-05,0.0,0 STARLINK-4134,1 53254U 22086N   23296.49829031  .00002250  00000-0  15944-3 0  9990,2 53254  53.2160 131.5936 0001525  93.8872 266.2295 15.08838474 69810,6917.885,95.438,540.805,538.695,0.0
53254.0,STARLINK-4134,PAYLOAD,2023-10-23 21:29:50,15.0884655,0.0001506,53.216,129.8096,93.5009,266.6155,0.00027677,4.12e-05,0.0,0 STARLINK-4134,1 53254U 22086N   23296.89572832  .00004120  00000-0  27677-3 0  9992,2 53254  53.2160 129.8096 0001506  93.5009 266.6155 15.08846550 70078,6917.86,95.437,540.767,538.684,0.0
53254.0,STARLINK-4134,PAYLOAD,2023-10-24 13:23:42,15.08839215,0.0001543,53.2163,126.8356,94.2145,265.9023,0.00018564,2.668e-05,0.0,0 STARLINK-4134,1 53254U 22086N   23297.55813192  .00002668  00000-0  18564-3 0  9993,2 53254  53.2163 126.8356 0001543  94.2145 265.9023 15.08839215 69970,6917.883,95.438,540.815,538.68,0.0
53254.0,STARLINK-4134,PAYLOAD,2023-10-25 21:11:24,15.08849112,0.0001458,53.2161,120.888,91.5543,268.5616,0.00017202,2.451e-05,0.0,0 STARLINK-4134,1 53254U 22086N   23298.88292615  .00002451  00000-0  17202-3 0  9999,2 53254  53.2161 120.8880 0001458  91.5543 268.5616 15.08849112 70371,6917.853,95.437,540.726,538.709,0.0
53254.0,STARLINK-4134,PAYLOAD,2023-10-25 22:46:47,15.08848231,0.0001481,53.216,120.591,92.0153,268.1009,0.00016895,2.402e-05,0.0,0 STARLINK-4134,1 53254U 22086N   23298.94916606  .00002402  00000-0  16895-3 0  9992,2 53254  53.2160 120.5910 0001481  92.0153 268.1009 15.08848231 70182,6917.855,95.437,540.745,538.696,0.0
53254.0,STARLINK-4134,PAYLOAD,2023-10-26 11:29:53,15.08832551,0.0001392,53.2161,118.2117,98.2756,261.8394,0.0002626,3.893e-05,0.0,0 STARLINK-4134,1 53254U 22086N   23299.47909530  .00003893  00000-0  26260-3 0  9991,2 53254  53.2161 118.2117 0001392  98.2756 261.8394 15.08832551 70268,6917.903,95.438,540.731,538.805,0.0
53254.0,STARLINK-4134,PAYLOAD,2023-10-26 13:05:16,15.08837434,0.0001464,53.2161,117.9142,89.6024,270.5136,4.8654e-05,4.86e-06,0.0,0 STARLINK-4134,1 53254U 22086N   23299.54533136  .00000486  00000-0  48654-4 0  9991,2 53254  53.2161 117.9142 0001464  89.6024 270.5136 15.08837434 70473,6917.888,95.438,540.766,538.74,0.0
53254.0,STARLINK-4134,PAYLOAD,2023-10-26 19:26:49,15.08840761,0.0001478,53.2162,116.7249,89.5784,270.5378,4.9677e-05,5.03e-06,0.0,0 STARLINK-4134,1 53254U 22086N   23299.81028969  .00000503  00000-0  49677-4 0  9990,2 53254  53.2162 116.7249 0001478  89.5784 270.5378 15.08840761 70516,6917.878,95.438,540.766,538.721,0.0
53254.0,STARLINK-4134,PAYLOAD,2023-10-26 22:37:35,15.08843113,0.000147,53.2161,116.1301,88.9709,271.1452,8.2268e-05,1.022e-05,0.0,0 STARLINK-4134,1 53254U 22086N   23299.94276845  .00001022  00000-0  82268-4 0  9992,2 53254  53.2161 116.1301 0001470  88.9709 271.1452 15.08843113 70334,6917.871,95.437,540.753,538.719,0.0
53254.0,STARLINK-4134,PAYLOAD,2023-10-27 11:20:40,15.08843443,0.0001476,53.2162,113.751,85.7972,274.3189,0.0001063,1.404e-05,0.0,0 STARLINK-4134,1 53254U 22086N   23300.47268859  .00001404  00000-0  10630-3 0  9996,2 53254  53.2162 113.7510 0001476  85.7972 274.3189 15.08843443 70612,6917.87,95.437,540.756,538.714,0.0
53254.0,STARLINK-4134,PAYLOAD,2023-10-27 20:52:58,15.08848533,0.000147,53.2162,111.9669,85.647,274.469,0.00014736,2.059e-05,0.0,0 STARLINK-4134,1 53254U 22086N   23300.87012506  .00002059  00000-0  14736-3 0  9994,2 53254  53.2162 111.9669 0001470  85.6470 274.4690 15.08848533 70672,6917.854,95.437,540.736,538.702,0.0
53254.0,STARLINK-4134,PAYLOAD,2023-10-28 11:11:27,15.08836756,0.0001566,53.2164,109.2911,84.7069,275.4102,3.1736e-05,2.17e-06,0.0,0 STARLINK-4134,1 53254U 22086N   23301.46629191  .00000217  00000-0  31736-4 0  9998,2 53254  53.2164 109.2911 0001566  84.7069 275.4102 15.08836756 70565,6917.89,95.438,540.839,538.672,0.0
